{
  "type": "FeatureCollection",
  "features": [
    {
      "type": "Feature",
      "properties": {
        "norad_id": 66917,
        "name": "HULIANWANG DIGUI 14C",
        "group": "last-30-days",
        "lat": 32.516152772873816,
        "lon": 168.32116121928777,
        "alt_km": 872.402227323736,
        "timestamp": "2025-12-08T03:50:05.785344+00:00",
        "meta_object_name": "HULIANWANG DIGUI 14C",
        "meta_object_id": "2025-285C",
        "meta_epoch": "2025-12-07T12:16:17.926176",
        "meta_mean_motion": 14.06033663,
        "meta_eccentricity": 0.0007479,
        "meta_inclination": 50.0017,
        "meta_ra_of_asc_node": 138.6154,
        "meta_arg_of_pericenter": 267.9821,
        "meta_mean_anomaly": 92.0228,
        "meta_ephemeris_type": 0,
        "meta_classification_type": "U",
        "meta_norad_cat_id": 66917,
        "meta_element_set_no": 999,
        "meta_rev_at_epoch": 17,
        "meta_bstar": -1.0709e-05,
        "meta_mean_motion_dot": -1.7e-06,
        "meta_mean_motion_ddot": 0,
        "tle_line1": "1 66917U 25285C   25341.51131859 -.00000170  00000+0 -10709-4 0  9999",
        "tle_line2": "2 66917  50.0017 138.6154 0007479 267.9821  92.0228 14.06033663   177"
      },
      "geometry": {
        "type": "Point",
        "coordinates": [
          168.32116121928777,
          32.516152772873816
        ]
      }
    },
    {
      "type": "Feature",
      "properties": {
        "norad_id": 66918,
        "name": "HULIANWANG DIGUI 14D",
        "group": "last-30-days",
        "lat": 33.00304793388978,
        "lon": 169.00532320543945,
        "alt_km": 871.6222759187413,
        "timestamp": "2025-12-08T03:50:05.785354+00:00",
        "meta_object_name": "HULIANWANG DIGUI 14D",
        "meta_object_id": "2025-285D",
        "meta_epoch": "2025-12-07T12:16:10.181280",
        "meta_mean_motion": 14.06161971,
        "meta_eccentricity": 0.0006366,
        "meta_inclination": 50.0041,
        "meta_ra_of_asc_node": 138.6166,
        "meta_arg_of_pericenter": 263.2017,
        "meta_mean_anomaly": 96.8164,
        "meta_ephemeris_type": 0,
        "meta_classification_type": "U",
        "meta_norad_cat_id": 66918,
        "meta_element_set_no": 999,
        "meta_rev_at_epoch": 17,
        "meta_bstar": 7.332e-06,
        "meta_mean_motion_dot": -1.4e-06,
        "meta_mean_motion_ddot": 0,
        "tle_line1": "1 66918U 25285D   25341.51122895 -.00000140  00000+0  73320-5 0  9995",
        "tle_line2": "2 66918  50.0041 138.6166 0006366 263.2017  96.8164 14.06161971   173"
      },
      "geometry": {
        "type": "Point",
        "coordinates": [
          169.00532320543945,
          33.00304793388978
        ]
      }
    },
    {
      "type": "Feature",
      "properties": {
        "norad_id": 66919,
        "name": "HULIANWANG DIGUI 14E",
        "group": "last-30-days",
        "lat": 33.134752010852836,
        "lon": 169.19194573950935,
        "alt_km": 871.5782374354085,
        "timestamp": "2025-12-08T03:50:05.785364+00:00",
        "meta_object_name": "HULIANWANG DIGUI 14E",
        "meta_object_id": "2025-285E",
        "meta_epoch": "2025-12-07T12:16:07.545216",
        "meta_mean_motion": 14.06180376,
        "meta_eccentricity": 0.0007847,
        "meta_inclination": 50.0066,
        "meta_ra_of_asc_node": 138.6186,
        "meta_arg_of_pericenter": 274.4474,
        "meta_mean_anomaly": 85.5535,
        "meta_ephemeris_type": 0,
        "meta_classification_type": "U",
        "meta_norad_cat_id": 66919,
        "meta_element_set_no": 999,
        "meta_rev_at_epoch": 17,
        "meta_bstar": 7.1576e-06,
        "meta_mean_motion_dot": -1.4e-06,
        "meta_mean_motion_ddot": 0,
        "tle_line1": "1 66919U 25285E   25341.51119844 -.00000140  00000+0  71576-5 0  9997",
        "tle_line2": "2 66919  50.0066 138.6186 0007847 274.4474  85.5535 14.06180376   176"
      },
      "geometry": {
        "type": "Point",
        "coordinates": [
          169.19194573950935,
          33.134752010852836
        ]
      }
    },
    {
      "type": "Feature",
      "properties": {
        "norad_id": 66920,
        "name": "HULIANWANG DIGUI 14F",
        "group": "last-30-days",
        "lat": 33.630878510886504,
        "lon": 169.9055891428242,
        "alt_km": 870.3249385012159,
        "timestamp": "2025-12-08T03:50:05.785375+00:00",
        "meta_object_name": "HULIANWANG DIGUI 14F",
        "meta_object_id": "2025-285F",
        "meta_epoch": "2025-12-07T12:15:59.264640",
        "meta_mean_motion": 14.06302755,
        "meta_eccentricity": 0.0005742,
        "meta_inclination": 50.0099,
        "meta_ra_of_asc_node": 138.6205,
        "meta_arg_of_pericenter": 271.5048,
        "meta_mean_anomaly": 88.52,
        "meta_ephemeris_type": 0,
        "meta_classification_type": "U",
        "meta_norad_cat_id": 66920,
        "meta_element_set_no": 999,
        "meta_rev_at_epoch": 17,
        "meta_bstar": 0.00012849,
        "meta_mean_motion_dot": 6.1e-07,
        "meta_mean_motion_ddot": 0,
        "tle_line1": "1 66920U 25285F   25341.51110260  .00000061  00000+0  12849-3 0  9999",
        "tle_line2": "2 66920  50.0099 138.6205 0005742 271.5048  88.5200 14.06302755   172"
      },
      "geometry": {
        "type": "Point",
        "coordinates": [
          169.9055891428242,
          33.630878510886504
        ]
      }
    },
    {
      "type": "Feature",
      "properties": {
        "norad_id": 66921,
        "name": "HULIANWANG DIGUI 14G",
        "group": "last-30-days",
        "lat": 33.783815513236405,
        "lon": 170.12860079377228,
        "alt_km": 870.3410870089783,
        "timestamp": "2025-12-08T03:50:05.785385+00:00",
        "meta_object_name": "HULIANWANG DIGUI 14G",
        "meta_object_id": "2025-285G",
        "meta_epoch": "2025-12-07T12:15:56.625984",
        "meta_mean_motion": 14.06338069,
        "meta_eccentricity": 0.0006931,
        "meta_inclination": 50.0114,
        "meta_ra_of_asc_node": 138.6219,
        "meta_arg_of_pericenter": 277.9969,
        "meta_mean_anomaly": 82.015,
        "meta_ephemeris_type": 0,
        "meta_classification_type": "U",
        "meta_norad_cat_id": 66921,
        "meta_element_set_no": 999,
        "meta_rev_at_epoch": 17,
        "meta_bstar": 6.2927e-06,
        "meta_mean_motion_dot": -1.42e-06,
        "meta_mean_motion_ddot": 0,
        "tle_line1": "1 66921U 25285G   25341.51107206 -.00000142  00000+0  62927-5 0  9991",
        "tle_line2": "2 66921  50.0114 138.6219 0006931 277.9969  82.0150 14.06338069   179"
      },
      "geometry": {
        "type": "Point",
        "coordinates": [
          170.12860079377228,
          33.783815513236405
        ]
      }
    },
    {
      "type": "Feature",
      "properties": {
        "norad_id": 66922,
        "name": "HULIANWANG DIGUI 14H",
        "group": "last-30-days",
        "lat": 34.23618023092924,
        "lon": 170.80014769789815,
        "alt_km": 869.4601310550361,
        "timestamp": "2025-12-08T03:50:05.785395+00:00",
        "meta_object_name": "HULIANWANG DIGUI 14H",
        "meta_object_id": "2025-285H",
        "meta_epoch": "2025-12-07T12:15:48.995136",
        "meta_mean_motion": 14.06451234,
        "meta_eccentricity": 0.0006902,
        "meta_inclination": 50.0078,
        "meta_ra_of_asc_node": 138.619,
        "meta_arg_of_pericenter": 284.3136,
        "meta_mean_anomaly": 75.7003,
        "meta_ephemeris_type": 0,
        "meta_classification_type": "U",
        "meta_norad_cat_id": 66922,
        "meta_element_set_no": 999,
        "meta_rev_at_epoch": 17,
        "meta_bstar": 8.1671e-05,
        "meta_mean_motion_dot": -1.7e-07,
        "meta_mean_motion_ddot": 0,
        "tle_line1": "1 66922U 25285H   25341.51098374 -.00000017  00000+0  81671-4 0  9994",
        "tle_line2": "2 66922  50.0078 138.6190 0006902 284.3136  75.7003 14.06451234   179"
      },
      "geometry": {
        "type": "Point",
        "coordinates": [
          170.80014769789815,
          34.23618023092924
        ]
      }
    },
    {
      "type": "Feature",
      "properties": {
        "norad_id": 66923,
        "name": "HULIANWANG DIGUI 14J",
        "group": "last-30-days",
        "lat": 34.50150313070048,
        "lon": 171.19792712261818,
        "alt_km": 868.9514788273564,
        "timestamp": "2025-12-08T03:50:05.785405+00:00",
        "meta_object_name": "HULIANWANG DIGUI 14J",
        "meta_object_id": "2025-285J",
        "meta_epoch": "2025-12-07T12:15:44.352864",
        "meta_mean_motion": 14.06516015,
        "meta_eccentricity": 0.0005403,
        "meta_inclination": 50.0087,
        "meta_ra_of_asc_node": 138.6193,
        "meta_arg_of_pericenter": 279.2419,
        "meta_mean_anomaly": 80.7876,
        "meta_ephemeris_type": 0,
        "meta_classification_type": "U",
        "meta_norad_cat_id": 66923,
        "meta_element_set_no": 999,
        "meta_rev_at_epoch": 17,
        "meta_bstar": 0.00030586,
        "meta_mean_motion_dot": 3.57e-06,
        "meta_mean_motion_ddot": 0,
        "tle_line1": "1 66923U 25285J   25341.51093001  .00000357  00000+0  30586-3 0  9991",
        "tle_line2": "2 66923  50.0087 138.6193 0005403 279.2419  80.7876 14.06516015   178"
      },
      "geometry": {
        "type": "Point",
        "coordinates": [
          171.19792712261818,
          34.50150313070048
        ]
      }
    }
  ]
}